{
  "type": "FeatureCollection",
  "features": [
    {
      "type": "Feature",
      "properties": {
        "norad_id": 66463,
        "name": "STARLINK-35463",
        "group": "last-30-days",
        "lat": -21.30755934180686,
        "lon": 73.12967940517666,
        "alt_km": 416.80351301923383,
        "timestamp": "2025-12-08T03:50:05.782986+00:00",
        "meta_object_name": "STARLINK-35463",
        "meta_object_id": "2025-262H",
        "meta_epoch": "2025-12-07T06:00:04.999968",
        "meta_mean_motion": 15.5058449,
        "meta_eccentricity": 0.00015269,
        "meta_inclination": 43.0007,
        "meta_ra_of_asc_node": 103.195,
        "meta_arg_of_pericenter": 260.7919,
        "meta_mean_anomaly": 22.8873,
        "meta_ephemeris_type": 0,
        "meta_classification_type": "U",
        "meta_norad_cat_id": 66463,
        "meta_element_set_no": 999,
        "meta_rev_at_epoch": 475,
        "meta_bstar": -0.00073476651,
        "meta_mean_motion_dot": -0.00043218,
        "meta_mean_motion_ddot": 0,
        "tle_line1": "1 66463U 25262H   25341.25005787 -.00043218  00000+0 -73477-3 0  9991",
        "tle_line2": "2 66463  43.0007 103.1950 0001526 260.7919  22.8873 15.50584490  4755"
      },
      "geometry": {
        "type": "Point",
        "coordinates": [
          73.12967940517666,
          -21.30755934180686
        ]
      }
    },
    {
      "type": "Feature",
      "properties": {
        "norad_id": 66464,
        "name": "STARLINK-35435",
        "group": "last-30-days",
        "lat": -22.528329600641513,
        "lon": 71.44729611632319,
        "alt_km": 417.2044912716101,
        "timestamp": "2025-12-08T03:50:05.782997+00:00",
        "meta_object_name": "STARLINK-35435",
        "meta_object_id": "2025-262J",
        "meta_epoch": "2025-12-07T06:00:04.999968",
        "meta_mean_motion": 15.50610251,
        "meta_eccentricity": 0.00014155,
        "meta_inclination": 43.0008,
        "meta_ra_of_asc_node": 103.2001,
        "meta_arg_of_pericenter": 254.3199,
        "meta_mean_anomaly": 27.4427,
        "meta_ephemeris_type": 0,
        "meta_classification_type": "U",
        "meta_norad_cat_id": 66464,
        "meta_element_set_no": 999,
        "meta_rev_at_epoch": 475,
        "meta_bstar": -0.0016175345,
        "meta_mean_motion_dot": -0.00094206,
        "meta_mean_motion_ddot": 0,
        "tle_line1": "1 66464U 25262J   25341.25005787 -.00094206  00000+0 -16175-2 0  9996",
        "tle_line2": "2 66464  43.0008 103.2001 0001415 254.3199  27.4427 15.50610251  4752"
      },
      "geometry": {
        "type": "Point",
        "coordinates": [
          71.44729611632319,
          -22.528329600641513
        ]
      }
    },
    {
      "type": "Feature",
      "properties": {
        "norad_id": 66465,
        "name": "STARLINK-35448",
        "group": "last-30-days",
        "lat": -18.90001073747464,
        "lon": 76.30757760350019,
        "alt_km": 416.6602212221014,
        "timestamp": "2025-12-08T03:50:05.783008+00:00",
        "meta_object_name": "STARLINK-35448",
        "meta_object_id": "2025-262K",
        "meta_epoch": "2025-12-07T06:00:04.999968",
        "meta_mean_motion": 15.50578208,
        "meta_eccentricity": 0.00015806,
        "meta_inclination": 43.0007,
        "meta_ra_of_asc_node": 103.1856,
        "meta_arg_of_pericenter": 258.3636,
        "meta_mean_anomaly": 29.1538,
        "meta_ephemeris_type": 0,
        "meta_classification_type": "U",
        "meta_norad_cat_id": 66465,
        "meta_element_set_no": 999,
        "meta_rev_at_epoch": 475,
        "meta_bstar": -0.00059376763,
        "meta_mean_motion_dot": -0.00035019,
        "meta_mean_motion_ddot": 0,
        "tle_line1": "1 66465U 25262K   25341.25005787 -.00035019  00000+0 -59377-3 0  9996",
        "tle_line2": "2 66465  43.0007 103.1856 0001580 258.3636  29.1538 15.50578208  4759"
      },
      "geometry": {
        "type": "Point",
        "coordinates": [
          76.30757760350019,
          -18.90001073747464
        ]
      }
    },
    {
      "type": "Feature",
      "properties": {
        "norad_id": 66466,
        "name": "STARLINK-35388",
        "group": "last-30-days",
        "lat": -17.6857029579191,
        "lon": 77.84792154064087,
        "alt_km": 416.64881599845194,
        "timestamp": "2025-12-08T03:50:05.783019+00:00",
        "meta_object_name": "STARLINK-35388",
        "meta_object_id": "2025-262L",
        "meta_epoch": "2025-12-07T06:00:04.999968",
        "meta_mean_motion": 15.50580464,
        "meta_eccentricity": 0.00015113,
        "meta_inclination": 43.0007,
        "meta_ra_of_asc_node": 103.1797,
        "meta_arg_of_pericenter": 257.1421,
        "meta_mean_anomaly": 32.2939,
        "meta_ephemeris_type": 0,
        "meta_classification_type": "U",
        "meta_norad_cat_id": 66466,
        "meta_element_set_no": 999,
        "meta_rev_at_epoch": 475,
        "meta_bstar": -0.000703974,
        "meta_mean_motion_dot": -0.00041425,
        "meta_mean_motion_ddot": 0,
        "tle_line1": "1 66466U 25262L   25341.25005787 -.00041425  00000+0 -70397-3 0  9990",
        "tle_line2": "2 66466  43.0007 103.1797 0001511 257.1421  32.2939 15.50580464  4754"
      },
      "geometry": {
        "type": "Point",
        "coordinates": [
          77.84792154064087,
          -17.6857029579191
        ]
      }
    },
    {
      "type": "Feature",
      "properties": {
        "norad_id": 66467,
        "name": "STARLINK-35682",
        "group": "last-30-days",
        "lat": -20.122252039218885,
        "lon": 74.71615372326173,
        "alt_km": 416.80376906973197,
        "timestamp": "2025-12-08T03:50:05.783041+00:00",
        "meta_object_name": "STARLINK-35682",
        "meta_object_id": "2025-262M",
        "meta_epoch": "2025-12-07T06:00:04.999968",
        "meta_mean_motion": 15.50587473,
        "meta_eccentricity": 0.0001569,
        "meta_inclination": 43.0008,
        "meta_ra_of_asc_node": 103.1904,
        "meta_arg_of_pericenter": 257.959,
        "meta_mean_anomaly": 27.6382,
        "meta_ephemeris_type": 0,
        "meta_classification_type": "U",
        "meta_norad_cat_id": 66467,
        "meta_element_set_no": 999,
        "meta_rev_at_epoch": 475,
        "meta_bstar": -0.00087778584,
        "meta_mean_motion_dot": -0.00051515,
        "meta_mean_motion_ddot": 0,
        "tle_line1": "1 66467U 25262M   25341.25005787 -.00051515  00000+0 -87779-3 0  9994",
        "tle_line2": "2 66467  43.0008 103.1904 0001569 257.9590  27.6382 15.50587473  4751"
      },
      "geometry": {
        "type": "Point",
        "coordinates": [
          74.71615372326173,
          -20.122252039218885
        ]
      }
    },
    {
      "type": "Feature",
      "properties": {
        "norad_id": 66468,
        "name": "STARLINK-35331",
        "group": "last-30-days",
        "lat": -16.464210309701084,
        "lon": 79.36349845993091,
        "alt_km": 416.65102419002596,
        "timestamp": "2025-12-08T03:50:05.783056+00:00",
        "meta_object_name": "STARLINK-35331",
        "meta_object_id": "2025-262N",
        "meta_epoch": "2025-12-07T06:00:04.999968",
        "meta_mean_motion": 15.50587213,
        "meta_eccentricity": 0.00015657,
        "meta_inclination": 43.0007,
        "meta_ra_of_asc_node": 103.1757,
        "meta_arg_of_pericenter": 254.5846,
        "meta_mean_anomaly": 36.7657,
        "meta_ephemeris_type": 0,
        "meta_classification_type": "U",
        "meta_norad_cat_id": 66468,
        "meta_element_set_no": 999,
        "meta_rev_at_epoch": 475,
        "meta_bstar": -0.00092434369,
        "meta_mean_motion_dot": -0.0005421,
        "meta_mean_motion_ddot": 0,
        "tle_line1": "1 66468U 25262N   25341.25005787 -.00054210  00000+0 -92434-3 0  9994",
        "tle_line2": "2 66468  43.0007 103.1757 0001565 254.5846  36.7657 15.50587213  4758"
      },
      "geometry": {
        "type": "Point",
        "coordinates": [
          79.36349845993091,
          -16.464210309701084
        ]
      }
    },
    {
      "type": "Feature",
      "properties": {
        "norad_id": 66469,
        "name": "STARLINK-35451",
        "group": "last-30-days",
        "lat": -12.69839791304276,
        "lon": 83.84560229321262,
        "alt_km": 416.28392207732304,
        "timestamp": "2025-12-08T03:50:05.783067+00:00",
        "meta_object_name": "STARLINK-35451",
        "meta_object_id": "2025-262P",
        "meta_epoch": "2025-12-07T06:00:04.999968",
        "meta_mean_motion": 15.50593539,
        "meta_eccentricity": 0.00014142,
        "meta_inclination": 43.0007,
        "meta_ra_of_asc_node": 103.1608,
        "meta_arg_of_pericenter": 261.2034,
        "meta_mean_anomaly": 35.8916,
        "meta_ephemeris_type": 0,
        "meta_classification_type": "U",
        "meta_norad_cat_id": 66469,
        "meta_element_set_no": 999,
        "meta_rev_at_epoch": 475,
        "meta_bstar": -0.0009614869,
        "meta_mean_motion_dot": -0.00056372,
        "meta_mean_motion_ddot": 0,
        "tle_line1": "1 66469U 25262P   25341.25005787 -.00056372  00000+0 -96149-3 0  9993",
        "tle_line2": "2 66469  43.0007 103.1608 0001414 261.2034  35.8916 15.50593539  4757"
      },
      "geometry": {
        "type": "Point",
        "coordinates": [
          83.84560229321262,
          -12.69839791304276
        ]
      }
    }
  ]
}